{
  "type": "FeatureCollection",
  "features": [
    {
      "type": "Feature",
      "properties": {
        "id": "zone.1777750907481.1212",
        "type": "no_go",
        "enabled": true
      },
      "geometry": {
        "type": "Polygon",
        "coordinates": [
          [
            [
              -64.2457401752472,
              -31.486476204865248
            ],
            [
              -64.2449462413788,
              -31.48641216072718
            ],
            [
              -64.24512863159181,
              -31.486037044180822
            ],
            [
              -64.24547195434572,
              -31.486037044180822
            ],
            [
              -64.24577236175539,
              -31.486192580492343
            ],
            [
              -64.2457401752472,
              -31.486476204865248
            ]
          ]
        ]
      }
    }
  ]
}
